{
  "type": "FeatureCollection",
  "features": [
    {
      "type": "Feature",
      "properties": {
        "norad_id": 35284,
        "name": "COSMOS 2251 DEB",
        "group": "cosmos-2251-debris",
        "lat": -57.83486981688811,
        "lon": -103.40310580250042,
        "alt_km": 765.7140960756578,
        "timestamp": "2025-12-02T07:10:09.512327+00:00",
        "meta_object_name": "COSMOS 2251 DEB",
        "meta_object_id": "1993-036AJN",
        "meta_epoch": "2025-12-01T13:38:31.155360",
        "meta_mean_motion": 14.382963,
        "meta_eccentricity": 0.00163281,
        "meta_inclination": 74.049,
        "meta_ra_of_asc_node": 284.9919,
        "meta_arg_of_pericenter": 3.7139,
        "meta_mean_anomaly": 114.9177,
        "meta_ephemeris_type": 0,
        "meta_classification_type": "U",
        "meta_norad_cat_id": 35284,
        "meta_element_set_no": 999,
        "meta_rev_at_epoch": 65365,
        "meta_bstar": 0.00020439824,
        "meta_mean_motion_dot": 5.97e-06,
        "meta_mean_motion_ddot": 0,
        "tle_line1": "1 35284U 93036AJN 25335.56841615  .00000597  00000+0  20440-3 0  9990",
        "tle_line2": "2 35284  74.0490 284.9919 0016328   3.7139 114.9177 14.38296300653654"
      },
      "geometry": {
        "type": "Point",
        "coordinates": [
          -103.40310580250042,
          -57.83486981688811
        ]
      }
    },
    {
      "type": "Feature",
      "properties": {
        "norad_id": 35287,
        "name": "COSMOS 2251 DEB",
        "group": "cosmos-2251-debris",
        "lat": -6.9166727930032,
        "lon": 117.31326345473504,
        "alt_km": 784.7933619247233,
        "timestamp": "2025-12-02T07:10:09.512337+00:00",
        "meta_object_name": "COSMOS 2251 DEB",
        "meta_object_id": "1993-036AJR",
        "meta_epoch": "2025-11-30T22:48:48.302784",
        "meta_mean_motion": 14.36358649,
        "meta_eccentricity": 0.00170775,
        "meta_inclination": 74.0298,
        "meta_ra_of_asc_node": 297.7988,
        "meta_arg_of_pericenter": 37.8906,
        "meta_mean_anomaly": 20.6981,
        "meta_ephemeris_type": 0,
        "meta_classification_type": "U",
        "meta_norad_cat_id": 35287,
        "meta_element_set_no": 999,
        "meta_rev_at_epoch": 86723,
        "meta_bstar": 0.00016415691,
        "meta_mean_motion_dot": 4.55e-06,
        "meta_mean_motion_ddot": 0,
        "tle_line1": "1 35287U 93036AJR 25334.95055906  .00000455  00000+0  16416-3 0  9996",
        "tle_line2": "2 35287  74.0298 297.7988 0017077  37.8906  20.6981 14.36358649867233"
      },
      "geometry": {
        "type": "Point",
        "coordinates": [
          117.31326345473504,
          -6.9166727930032
        ]
      }
    },
    {
      "type": "Feature",
      "properties": {
        "norad_id": 35288,
        "name": "COSMOS 2251 DEB",
        "group": "cosmos-2251-debris",
        "lat": -29.965627082020404,
        "lon": 25.82343623750182,
        "alt_km": 667.2989566623819,
        "timestamp": "2025-12-02T07:10:09.512347+00:00",
        "meta_object_name": "COSMOS 2251 DEB",
        "meta_object_id": "1993-036AJS",
        "meta_epoch": "2025-11-30T11:04:08.492160",
        "meta_mean_motion": 14.65241099,
        "meta_eccentricity": 0.00395716,
        "meta_inclination": 73.9513,
        "meta_ra_of_asc_node": 38.9293,
        "meta_arg_of_pericenter": 273.9222,
        "meta_mean_anomaly": 85.7423,
        "meta_ephemeris_type": 0,
        "meta_classification_type": "U",
        "meta_norad_cat_id": 35288,
        "meta_element_set_no": 999,
        "meta_rev_at_epoch": 87698,
        "meta_bstar": 0.0012665002,
        "meta_mean_motion_dot": 6.877e-05,
        "meta_mean_motion_ddot": 0,
        "tle_line1": "1 35288U 93036AJS 25334.46120940  .00006877  00000+0  12665-2 0  9999",
        "tle_line2": "2 35288  73.9513  38.9293 0039571 273.9222  85.7423 14.65241099876980"
      },
      "geometry": {
        "type": "Point",
        "coordinates": [
          25.82343623750182,
          -29.965627082020404
        ]
      }
    },
    {
      "type": "Feature",
      "properties": {
        "norad_id": 35290,
        "name": "COSMOS 2251 DEB",
        "group": "cosmos-2251-debris",
        "lat": 50.279348803462,
        "lon": 100.24003232226181,
        "alt_km": 627.1323856825557,
        "timestamp": "2025-12-02T07:10:09.512357+00:00",
        "meta_object_name": "COSMOS 2251 DEB",
        "meta_object_id": "1993-036AJU",
        "meta_epoch": "2025-12-01T06:35:33.142560",
        "meta_mean_motion": 14.79807104,
        "meta_eccentricity": 0.00037082,
        "meta_inclination": 74.0051,
        "meta_ra_of_asc_node": 82.0624,
        "meta_arg_of_pericenter": 206.8807,
        "meta_mean_anomaly": 153.2178,
        "meta_ephemeris_type": 0,
        "meta_classification_type": "U",
        "meta_norad_cat_id": 35290,
        "meta_element_set_no": 999,
        "meta_rev_at_epoch": 87788,
        "meta_bstar": 0.002855926,
        "meta_mean_motion_dot": 0.00021548,
        "meta_mean_motion_ddot": 0,
        "tle_line1": "1 35290U 93036AJU 25335.27468915  .00021548  00000+0  28559-2 0  9990",
        "tle_line2": "2 35290  74.0051  82.0624 0003708 206.8807 153.2178 14.79807104877885"
      },
      "geometry": {
        "type": "Point",
        "coordinates": [
          100.24003232226181,
          50.279348803462
        ]
      }
    },
    {
      "type": "Feature",
      "properties": {
        "norad_id": 35432,
        "name": "COSMOS 2251 DEB",
        "group": "cosmos-2251-debris",
        "lat": -2.4497794709721994,
        "lon": -141.79670264247662,
        "alt_km": 519.0539694238423,
        "timestamp": "2025-12-02T07:10:09.512368+00:00",
        "meta_object_name": "COSMOS 2251 DEB",
        "meta_object_id": "1993-036AKA",
        "meta_epoch": "2025-12-01T05:04:45.083424",
        "meta_mean_motion": 15.18892352,
        "meta_eccentricity": 0.0011708,
        "meta_inclination": 74.02,
        "meta_ra_of_asc_node": 39.7774,
        "meta_arg_of_pericenter": 355.1104,
        "meta_mean_anomaly": 4.9976,
        "meta_ephemeris_type": 0,
        "meta_classification_type": "U",
        "meta_norad_cat_id": 35432,
        "meta_element_set_no": 999,
        "meta_rev_at_epoch": 87328,
        "meta_bstar": 0.0078933,
        "meta_mean_motion_dot": 0.00168825,
        "meta_mean_motion_ddot": 0,
        "tle_line1": "1 35432U 93036AKA 25335.21163291  .00168825  00000+0  78933-2 0  9992",
        "tle_line2": "2 35432  74.0200  39.7774 0011708 355.1104   4.9976 15.18892352873282"
      },
      "geometry": {
        "type": "Point",
        "coordinates": [
          -141.79670264247662,
          -2.4497794709721994
        ]
      }
    },
    {
      "type": "Feature",
      "properties": {
        "norad_id": 35433,
        "name": "COSMOS 2251 DEB",
        "group": "cosmos-2251-debris",
        "lat": 5.742872236893152,
        "lon": -0.7698880264619266,
        "alt_km": 766.1630278603689,
        "timestamp": "2025-12-02T07:10:09.512378+00:00",
        "meta_object_name": "COSMOS 2251 DEB",
        "meta_object_id": "1993-036AKB",
        "meta_epoch": "2025-11-29T08:56:22.068960",
        "meta_mean_motion": 14.34715508,
        "meta_eccentricity": 0.00253594,
        "meta_inclination": 74.0352,
        "meta_ra_of_asc_node": 2.9393,
        "meta_arg_of_pericenter": 62.2545,
        "meta_mean_anomaly": 316.1289,
        "meta_ephemeris_type": 0,
        "meta_classification_type": "U",
        "meta_norad_cat_id": 35433,
        "meta_element_set_no": 999,
        "meta_rev_at_epoch": 86389,
        "meta_bstar": 0.00023326055,
        "meta_mean_motion_dot": 6.37e-06,
        "meta_mean_motion_ddot": 0,
        "tle_line1": "1 35433U 93036AKB 25333.37247765  .00000637  00000+0  23326-3 0  9990",
        "tle_line2": "2 35433  74.0352   2.9393 0025359  62.2545 316.1289 14.34715508863897"
      },
      "geometry": {
        "type": "Point",
        "coordinates": [
          -0.7698880264619266,
          5.742872236893152
        ]
      }
    },
    {
      "type": "Feature",
      "properties": {
        "norad_id": 35434,
        "name": "COSMOS 2251 DEB",
        "group": "cosmos-2251-debris",
        "lat": -71.86448322838164,
        "lon": 113.35428288928553,
        "alt_km": 767.7801212455543,
        "timestamp": "2025-12-02T07:10:09.512388+00:00",
        "meta_object_name": "COSMOS 2251 DEB",
        "meta_object_id": "1993-036AKC",
        "meta_epoch": "2025-11-30T00:02:53.789280",
        "meta_mean_motion": 14.25623606,
        "meta_eccentricity": 0.00876191,
        "meta_inclination": 74.0414,
        "meta_ra_of_asc_node": 236.6139,
        "meta_arg_of_pericenter": 309.9857,
        "meta_mean_anomaly": 49.362,
        "meta_ephemeris_type": 0,
        "meta_classification_type": "U",
        "meta_norad_cat_id": 35434,
        "meta_element_set_no": 999,
        "meta_rev_at_epoch": 85936,
        "meta_bstar": 0.00077223856,
        "meta_mean_motion_dot": 1.879e-05,
        "meta_mean_motion_ddot": 0,
        "tle_line1": "1 35434U 93036AKC 25334.00201145  .00001879  00000+0  77224-3 0  9999",
        "tle_line2": "2 35434  74.0414 236.6139 0087619 309.9857  49.3620 14.25623606859363"
      },
      "geometry": {
        "type": "Point",
        "coordinates": [
          113.35428288928553,
          -71.86448322838164
        ]
      }
    }
  ]
}